{
    "links": {
        "self": "http://www.neowsapp.com/rest/v1/neo/3407478?api_key=iIulBulltgU6a56xZRHN4H3l9WmuAYTsLGpBGhQ2"
    },
    "id": "3407478",
    "neo_reference_id": "3407478",
    "name": "(2008 FM)",
    "designation": "2008 FM",
    "nasa_jpl_url": "http://ssd.jpl.nasa.gov/sbdb.cgi?sstr=3407478",
    "absolute_magnitude_h": 24.7,
    "estimated_diameter": {
        "kilometers": {
            "estimated_diameter_min": 0.0305179233,
            "estimated_diameter_max": 0.0682401509
        },
        "meters": {
            "estimated_diameter_min": 30.5179232594,
            "estimated_diameter_max": 68.2401509401
        },
        "miles": {
            "estimated_diameter_min": 0.0189629525,
            "estimated_diameter_max": 0.0424024508
        },
        "feet": {
            "estimated_diameter_min": 100.1244233463,
            "estimated_diameter_max": 223.8850168104
        }
    },
    "is_potentially_hazardous_asteroid": false,
    "close_approach_data": [
        {
            "close_approach_date": "2008-03-14",
            "close_approach_date_full": "2008-Mar-14 14:18",
            "epoch_date_close_approach": 1205504280000,
            "relative_velocity": {
                "kilometers_per_second": "9.2950310267",
                "kilometers_per_hour": "33462.1116962627",
                "miles_per_hour": "20792.0549037139"
            },
            "miss_distance": {
                "astronomical": "0.0688783824",
                "lunar": "26.7936907536",
                "kilometers": "10304059.296085488",
                "miles": "6402645.5519682144"
            },
            "orbiting_body": "Earth"
        }
    ],
    "orbital_data": {
        "orbit_id": "6",
        "orbit_determination_date": "2017-04-06 09:03:55",
        "first_observation_date": "2008-03-27",
        "last_observation_date": "2008-03-28",
        "data_arc_in_days": 1,
        "observations_used": 14,
        "orbit_uncertainty": "9",
        "minimum_orbit_intersection": ".0682669",
        "jupiter_tisserand_invariant": "3.828",
        "epoch_osculation": "2454553.5",
        "eccentricity": ".4696860774736209",
        "semi_major_axis": "1.867841840573336",
        "inclination": "9.989322753502066",
        "ascending_node_longitude": "189.0272977908279",
        "orbital_period": "932.4135502306266",
        "perihelion_distance": ".9905425331333375",
        "perihelion_argument": "311.7553797066807",
        "aphelion_distance": "2.745141148013335",
        "perihelion_time": "2454512.157018176082",
        "mean_anomaly": "15.9623092703116",
        "mean_motion": ".3860947751252181",
        "equinox": "J2000",
        "orbit_class": {
            "orbit_class_type": "APO",
            "orbit_class_description": "Near-Earth asteroid orbits which cross the Earth’s orbit similar to that of 1862 Apollo",
            "orbit_class_range": "a (semi-major axis) > 1.0 AU; q (perihelion) < 1.017 AU"
        }
    },
    "is_sentry_object": false
}